#aV2022  7 14  0  0  0.00000000     288 DD+AD WGS84 FIT  NGA
## 2218 345600.00000000   300.00000000 59774 0.0000000000000
+   32     1  2  3  4  5  6  7  8  9 10 11 12 13 14 15 16 17
+         18 19 20 21 22 23 24 25 26 27 28 29 30 31 32  0  0
+          0  0  0  0  0  0  0  0  0  0  0  0  0  0  0  0  0
+          0  0  0  0  0  0  0  0  0  0  0  0  0  0  0  0  0
+          0  0  0  0  0  0  0  0  0  0  0  0  0  0  0  0  0
++         2  2  2  2  2  2  2  2  2  2  2  2  2  2  2  2  2
++         2  2  2  2  2  2  2  2  2  2  2  2  2  2  2  0  0
++         0  0  0  0  0  0  0  0  0  0  0  0  0  0  0  0  0
++         0  0  0  0  0  0  0  0  0  0  0  0  0  0  0  0  0
++         0  0  0  0  0  0  0  0  0  0  0  0  0  0  0  0  0
%c cc cc ccc ccc cccc cccc cccc cccc ccccc ccccc ccccc ccccc
%c cc cc ccc ccc cccc cccc cccc cccc ccccc ccccc ccccc ccccc
%f  0.0000000  0.000000000  0.00000000000  0.000000000000000
%f  0.0000000  0.000000000  0.00000000000  0.000000000000000
%i    0    0    0    0      0      0      0      0         0
%i    0    0    0    0      0      0      0      0         0
/*      NGA, ST. LOUIS,MO.                                  
/*   EPHEMERIS COMPUTED FROM 2 DAYS OF DATA                 
/*   EPOCHA v8 SMOOTHER                                     
/*   G2139 IERS2010 SATIGS SATAPC                           
*  2022  7 14 14 45  0.00000000
P  1  19478.793507  10122.718907  14887.876074    321.579312                    
V  1  10252.373941  16363.277307 -23710.718930     -0.074481                    
P  2 -14231.425945 -21821.383483   5348.626720   -651.429109                    
V  2   5934.588946   2770.913758  31011.486239      0.006224                    
P  3  15615.545883    329.282948  21345.658313   -306.933992                    
V  3 -10256.897156  25373.867324   7183.093291     -0.100745                    
P  4  25842.735514   2031.096605   6008.226662   -145.984677                    
V  4  -7352.339070   3240.455266  30486.561554      0.045478                    
P  5  -9417.851137 -14724.919403 -20130.560444    -89.107937                    
V  5  10019.993887 -23169.263669  12505.543303     -0.014007                    
P  6  -2157.239527 -20939.009425  16210.642016    384.617798                    
V  6  13257.108532  15628.686255  22103.457034      0.158412                    
P  7  14375.224119  -5986.780302 -21147.156231    319.308726                    
V  7  16344.553627  22509.960365   4160.979632     -0.013221                    
P  8  22316.669978   6210.497843 -13342.523702    -76.163779                    
V  8 -16304.025421   4248.193060 -25024.078370     -0.015591                    
P  9  25282.872338  -6822.128856  -4627.942117   -319.107923                    
V  9   6134.379073   2079.606322  30869.026592      0.038311                    
P 10 -11368.658941  23752.853460  -1676.902713   -491.564536                    
V 10  -1513.130433  -3171.993654 -32163.550763     -0.137626                    
P 11 -11682.406437 -23405.086013   4674.281416    -10.763472                    
V 11   5509.867041   3462.839271  31049.094913      0.007600                    
P 12 -14470.867313  -4290.523532  21583.251448   -246.301701                    
V 12  12552.655474 -25056.319725   3496.707893     -0.059056                    
P 13 -13980.032017 -13057.557196 -18657.799327    348.296484                    
V 13  23299.823549   -820.758440 -16851.282437      0.074085                    
P 14  13231.025338 -22757.028765  -3090.538487   -111.824264                    
V 14   1155.169540   4914.529929 -31305.083089      0.004047                    
P 15 -22810.260054  -4592.245018 -13503.284241    -45.484698                    
V 15  15281.933782  -6548.177936 -24043.052325      0.030366                    
P 16   3594.994256  19295.999510 -17946.403783   -515.280455                    
V 16 -12110.921076  18916.689640  18636.718116     -0.021887                    
P 17  14561.148435 -13182.663612  18335.171618    636.768141                    
V 17  22374.312513   -130.193088 -18245.619684      0.044428                    
P 18 -13855.205674   6232.042072 -21806.792201    113.528841                    
V 18 -15915.597846 -22571.031423   3544.564972     -0.114284                    
P 19   5086.734564 -14489.446897  21386.027584    183.623459                    
V 19  27750.401582    270.924287  -6567.566174      0.050434                    
P 20  -2652.938527 -23860.540990 -11603.898323    503.282226                    
V 20   6162.034220 -13598.990056  26316.059196     -0.031443                    
P 21  20740.996721  15852.850955   7239.403018    161.114927                    
V 21   3919.953952   7470.082653 -29549.521755     -0.001425                    
P 22  -1807.999632  15402.010822  21972.215266    292.235612                    
V 22 -26908.092127    653.575450  -2898.086142      0.064677                    
P 23 -15760.018582  17740.337894 -11826.399134    -32.876755                    
V 23   3480.056915 -14784.352469 -26948.748715     -0.016874                    
P 24 -21185.412769 -12142.636309  10631.466590    197.127028                    
V 24  -6952.788647 -12349.745025 -26763.459536     -0.098822                    
P 25 -17275.394195  10465.159708  16819.024726    349.072496                    
V 25   6608.860856 -21118.119717  19861.854890      0.044663                    
P 26  -1994.649550  24787.372748  -8964.194212    218.173314                    
V 26  -7152.941831   9528.961279  28523.108766      0.021666                    
P 27  10742.980396  13015.265608 -20819.039870    220.640456                    
V 27 -25557.350177   3687.597449 -10614.699904      0.007596                    
P 28   8176.754396 -24637.422959   6680.791872    334.318796                    
V 28   5642.820540  -5762.112553 -30266.086078      0.033926                    
P 29 -25710.905618   4554.905861  -5136.279274   -533.474523                    
V 29  -6512.418405  -1782.841511  31253.787716     -0.035684                    
P 30   6628.753433 -15992.605225 -19989.295378   -533.960477                    
V 30  16213.750627  20043.049734 -10863.721646     -0.008465                    
P 31   3622.506749  22045.498177  13868.445651   -185.717522                    
V 31 -12631.678146 -13147.464766  24423.898311     -0.015325                    
P 32 -11182.153935  14883.611602  19019.830899   -176.109513                    
V 32 -23908.570898   1544.736983 -15572.318438     -0.099661                    
EOF
